NORAD_CAT_ID,OBJECT_NAME,OBJECT_TYPE,EPOCH,MEAN_MOTION,ECCENTRICITY,INCLINATION,RA_OF_ASC_NODE,ARG_OF_PERICENTER,MEAN_ANOMALY,BSTAR,MEAN_MOTION_DOT,MEAN_MOTION_DDOT,TLE_LINE0,TLE_LINE1,TLE_LINE2,SEMIMAJOR_AXIS,PERIOD,APOGEE,PERIGEE,DECAYED
56815.0,STARLINK-6057,PAYLOAD,2024-06-12 05:29:00,14.98330353,0.0003456,69.9988,146.8097,269.466,90.6103,-1.3755e-05,-2.57e-06,0.0,0 STARLINK-6057,1 56815U 23078BA  24164.22847954 -.00000257  00000-0 -13755-4 0  9994,2 56815  69.9988 146.8097 0003456 269.4660  90.6103 14.98330353 57754,6950.192,96.107,574.459,569.655,0.0
56815.0,STARLINK-6057,PAYLOAD,2024-06-12 16:41:56,14.98331586,0.000338,69.999,145.6311,269.7074,90.3698,1.1e-05,3.8e-07,0.0,0 STARLINK-6057,1 56815U 23078BA  24164.69579775  .00000038  00000-0  11000-4 0  9994,2 56815  69.9990 145.6311 0003380 269.7074  90.3698 14.98331586 57565,6950.188,96.107,574.402,569.704,0.0
56815.0,STARLINK-6057,PAYLOAD,2024-06-13 05:31:01,14.98331821,0.0003396,69.999,144.2847,269.5019,90.5751,4.5542e-05,4.5e-06,0.0,0 STARLINK-6057,1 56815U 23078BA  24165.22987625  .00000450  00000-0  45542-4 0  9997,2 56815  69.9990 144.2847 0003396 269.5019  90.5751 14.98331821 57900,6950.187,96.107,574.413,569.692,0.0
56815.0,STARLINK-6057,PAYLOAD,2024-06-13 08:43:17,14.98332043,0.0003391,69.999,143.948,269.5498,90.5272,4.6866e-05,4.66e-06,0.0,0 STARLINK-6057,1 56815U 23078BA  24165.36339594  .00000466  00000-0  46866-4 0  9995,2 56815  69.9990 143.9480 0003391 269.5498  90.5272 14.98332043 57663,6950.187,96.107,574.408,569.695,0.0
56815.0,STARLINK-6057,PAYLOAD,2024-06-14 08:45:18,14.98328608,0.0003361,69.9992,141.4233,269.4945,90.5829,1.5438e-05,9.1e-07,0.0,0 STARLINK-6057,1 56815U 23078BA  24166.36479879  .00000091  00000-0  15438-4 0  9992,2 56815  69.9992 141.4233 0003361 269.4945  90.5829 14.98328608 57814,6950.197,96.107,574.398,569.726,0.0
56815.0,STARLINK-6057,PAYLOAD,2024-06-14 21:34:22,14.98332628,0.0003358,69.9992,140.0768,269.8619,90.2155,2.7075e-05,2.3e-06,0.0,0 STARLINK-6057,1 56815U 23078BA  24166.89887564  .00000230  00000-0  27075-4 0  9999,2 56815  69.9992 140.0768 0003358 269.8619  90.2155 14.98332628 57894,6950.185,96.107,574.384,569.716,0.0
56815.0,STARLINK-6057,PAYLOAD,2024-06-15 07:11:11,14.98334451,0.0003357,69.9992,139.0669,269.346,90.7314,3.4566e-05,3.19e-06,0.0,0 STARLINK-6057,1 56815U 23078BA  24167.29943339  .00000319  00000-0  34566-4 0  9998,2 56815  69.9992 139.0669 0003357 269.3460  90.7314 14.98334451 57955,6950.179,96.107,574.377,569.711,0.0
56815.0,STARLINK-6057,PAYLOAD,2024-06-15 15:11:51,14.98332345,0.0003348,69.9992,138.2253,269.2838,90.7937,1.865e-05,1.29e-06,0.0,0 STARLINK-6057,1 56815U 23078BA  24167.63323447  .00000129  00000-0  18650-4 0  9993,2 56815  69.9992 138.2253 0003348 269.2838  90.7937 14.98332345 58001,6950.186,96.107,574.378,569.724,0.0
56815.0,STARLINK-6057,PAYLOAD,2024-06-16 07:13:12,14.98330003,0.0003311,69.9993,136.5423,269.278,90.7999,3.3406e-05,3.06e-06,0.0,0 STARLINK-6057,1 56815U 23078BA  24168.30083541  .00000306  00000-0  33406-4 0  9999,2 56815  69.9993 136.5423 0003311 269.2780  90.7999 14.98330003 58106,6950.193,96.107,574.359,569.757,0.0
56815.0,STARLINK-6057,PAYLOAD,2024-06-16 15:13:52,14.98330414,0.0003316,69.9993,135.7006,269.435,90.6429,2.6157e-05,2.19e-06,0.0,0 STARLINK-6057,1 56815U 23078BA  24168.63463518  .00000219  00000-0  26157-4 0  9999,2 56815  69.9993 135.7006 0003316 269.4350  90.6429 14.98330414 58152,6950.192,96.107,574.361,569.752,0.0
56815.0,STARLINK-6057,PAYLOAD,2024-06-17 15:15:52,14.98342798,0.0003293,69.9993,133.1757,268.8286,91.2496,0.00012306,1.376e-05,0.0,0 STARLINK-6057,1 56815U 23078BA  24169.63602204  .00001376  00000-0  12306-3 0  9992,2 56815  69.9993 133.1757 0003293 268.8286  91.2496 14.98342798 58566,6950.153,96.106,574.307,569.73,0.0
56815.0,STARLINK-6057,PAYLOAD,2024-06-17 21:40:24,14.98343299,0.0003343,69.9992,132.5022,268.589,91.4886,0.00016917,1.927e-05,0.0,0 STARLINK-6057,1 56815U 23078BA  24169.90305815  .00001927  00000-0  16917-3 0  9994,2 56815  69.9992 132.5022 0003343 268.5890  91.4886 14.98343299 58345,6950.152,96.106,574.34,569.693,0.0
56815.0,STARLINK-6057,PAYLOAD,2024-06-18 07:17:12,14.98346776,0.0003309,69.9993,131.4925,269.0952,90.9828,0.00016917,1.927e-05,0.0,0 STARLINK-6057,1 56815U 23078BA  24170.30361252  .00001927  00000-0  16917-3 0  9997,2 56815  69.9993 131.4925 0003309 269.0952  90.9828 14.98346776 58403,6950.141,96.106,574.306,569.706,0.0
56815.0,STARLINK-6057,PAYLOAD,2024-06-18 21:42:25,14.98330566,0.0003114,69.9998,129.9771,269.0682,91.0121,-3.7978e-05,-5.46e-06,0.0,0 STARLINK-6057,1 56815U 23078BA  24170.90446534 -.00000546  00000-0 -37978-4 0  9999,2 56815  69.9998 129.9771 0003114 269.0682  91.0121 14.98330566 58490,6950.191,96.107,574.22,569.892,0.0
56815.0,STARLINK-6057,PAYLOAD,2024-06-19 04:06:58,14.9832478,0.0003089,69.9999,129.3045,267.4855,92.5951,-4.8368e-05,-6.7e-06,0.0,0 STARLINK-6057,1 56815U 23078BA  24171.17150892 -.00000670  00000-0 -48368-4 0  9991,2 56815  69.9999 129.3045 0003089 267.4855  92.5951 14.98324780 58795,6950.209,96.107,574.221,569.927,0.0
56815.0,STARLINK-6057,PAYLOAD,2024-06-19 07:19:14,14.98324605,0.0003176,69.9998,128.9681,269.6605,90.419,-7.2701e-05,-9.6e-06,0.0,0 STARLINK-6057,1 56815U 23078BA  24171.30502995 -.00000960  00000-0 -72701-4 0  9991,2 56815  69.9998 128.9681 0003176 269.6605  90.4190 14.98324605 58551,6950.21,96.107,574.282,569.867,0.0
56815.0,STARLINK-6057,PAYLOAD,2024-06-19 21:44:26,14.9833324,0.0003127,70.0,127.4532,269.896,90.184,-0.00017537,-2.185e-05,0.0,0 STARLINK-6057,1 56815U 23078BA  24171.90586692 -.00002185  00000-0 -17537-3 0  9999,2 56815  70.0000 127.4532 0003127 269.8960  90.1840 14.98333240 58643,6950.183,96.107,574.221,569.875,0.0
56815.0,STARLINK-6057,PAYLOAD,2024-06-20 04:08:59,14.98332219,0.0003257,69.9994,126.7795,271.0342,89.0444,-0.00014886,-1.869e-05,0.0,0 STARLINK-6057,1 56815U 23078BA  24172.17290638 -.00001869  00000-0 -14886-3 0  9993,2 56815  69.9994 126.7795 0003257 271.0342  89.0444 14.98332219 58943,6950.186,96.107,574.315,569.787,0.0
56815.0,STARLINK-6057,PAYLOAD,2024-06-20 07:21:15,14.98332958,0.0003249,69.9994,126.4426,271.6645,88.4142,-0.00013195,-1.667e-05,0.0,0 STARLINK-6057,1 56815U 23078BA  24172.30642546 -.00001667  00000-0 -13195-3 0  9995,2 56815  69.9994 126.4426 0003249 271.6645  88.4142 14.98332958 58706,6950.184,96.107,574.307,569.791,0.0
56815.0,STARLINK-6057,PAYLOAD,2024-06-20 21:46:28,14.9831875,0.0003142,69.9997,124.9281,272.4377,87.6422,3.123e-05,2.8e-06,0.0,0 STARLINK-6057,1 56815U 23078BA  24172.90727132  .00000280  00000-0  31230-4 0  9995,2 56815  69.9997 124.9281 0003142 272.4377  87.6422 14.98318750 58799,6950.228,96.108,574.276,569.909,0.0
56815.0,STARLINK-6057,PAYLOAD,2024-06-20 23:22:36,14.98318405,0.0003151,69.9997,124.7598,272.3235,87.7563,2.6032e-05,2.18e-06,0.0,0 STARLINK-6057,1 56815U 23078BA  24172.97403213  .00000218  00000-0  26032-4 0  9998,2 56815  69.9997 124.7598 0003151 272.3235  87.7563 14.98318405 59065,6950.229,96.108,574.284,569.904,0.0
56815.0,STARLINK-6057,PAYLOAD,2024-06-21 07:23:16,14.98320999,0.0003137,69.9997,123.9182,272.1958,87.8841,5.1398e-05,5.2e-06,0.0,0 STARLINK-6057,1 56815U 23078BA  24173.30783212  .00000520  00000-0  51398-4 0  9995,2 56815  69.9997 123.9182 0003137 272.1958  87.8841 14.98320999 58856,6950.221,96.108,574.266,569.905,0.0
56815.0,STARLINK-6057,PAYLOAD,2024-06-21 21:48:29,14.98326027,0.0003143,69.9996,122.4035,270.2655,89.8143,5.7543e-05,5.94e-06,0.0,0 STARLINK-6057,1 56815U 23078BA  24173.90867123  .00000594  00000-0  57543-4 0  9994,2 56815  69.9996 122.4035 0003143 270.2655  89.8143 14.98326027 58941,6950.205,96.107,574.255,569.886,0.0
56815.0,STARLINK-6057,PAYLOAD,2024-06-22 04:13:01,14.98328447,0.0003111,69.9997,121.7303,269.785,90.2952,8.2506e-05,8.92e-06,0.0,0 STARLINK-6057,1 56815U 23078BA  24174.17570963  .00000892  00000-0  82506-4 0  9995,2 56815  69.9997 121.7303 0003111 269.7850  90.2952 14.98328447 59243,6950.198,96.107,574.225,569.9,0.0
56815.0,STARLINK-6057,PAYLOAD,2024-06-22 05:49:09,14.98328716,0.000311,69.9997,121.562,269.8282,90.252,8.3976e-05,9.09e-06,0.0,0 STARLINK-6057,1 56815U 23078BA  24174.24246952  .00000909  00000-0  83976-4 0  9992,2 56815  69.9997 121.5620 0003110 269.8282  90.2520 14.98328716 58993,6950.197,96.107,574.223,569.9,0.0
56815.0,STARLINK-6057,PAYLOAD,2024-06-22 21:50:30,14.9832618,0.0003051,69.9998,119.8788,266.2559,93.8251,5.1998e-05,5.27e-06,0.0,0 STARLINK-6057,1 56815U 23078BA  24174.91007305  .00000527  00000-0  51998-4 0  9998,2 56815  69.9998 119.8788 0003051 266.2559  93.8251 14.98326180 59096,6950.205,96.107,574.19,569.949,0.0
56815.0,STARLINK-6057,PAYLOAD,2024-06-23 04:15:02,14.98326189,0.0003063,69.9998,119.2055,266.24,93.8408,4.6789e-05,4.65e-06,0.0,0 STARLINK-6057,1 56815U 23078BA  24175.17711375  .00000465  00000-0  46789-4 0  9999,2 56815  69.9998 119.2055 0003063 266.2400  93.8408 14.98326189 59391,6950.205,96.107,574.199,569.941,0.0
56815.0,STARLINK-6057,PAYLOAD,2024-06-23 05:51:10,14.98326587,0.0003088,69.9997,119.037,267.5916,92.4889,4.94e-05,4.96e-06,0.0,0 STARLINK-6057,1 56815U 23078BA  24175.24387362  .00000496  00000-0  49400-4 0  9999,2 56815  69.9997 119.0370 0003088 267.5916  92.4889 14.98326587 59144,6950.203,96.107,574.215,569.922,0.0
56815.0,STARLINK-6057,PAYLOAD,2024-06-23 21:52:31,14.98330528,0.0003072,69.9998,117.3537,267.5538,92.5269,-4.0317e-06,-1.41e-06,0.0,0 STARLINK-6057,1 56815U 23078BA  24175.91147323 -.00000141  00000-0 -40317-5 0  9992,2 56815  69.9998 117.3537 0003072 267.5538  92.5269 14.98330528 59248,6950.191,96.107,574.191,569.921,0.0
56815.0,STARLINK-6057,PAYLOAD,2024-06-24 04:17:03,14.98332007,0.0003053,69.9997,116.6804,266.9354,93.1456,1.5585e-05,9.3e-07,0.0,0 STARLINK-6057,1 56815U 23078BA  24176.17851156  .00000093  00000-0  15585-4 0  9999,2 56815  69.9997 116.6804 0003053 266.9354  93.1456 14.98332007 59546,6950.187,96.107,574.174,569.93,0.0
